COSMOS 2433 (720)       
1 32275U 07052A   23173.82811672 -.00000059  00000+0  00000+0 0  9997
2 32275  66.0397 352.3747 0001175 181.5413 178.4750  2.13104263121862
COSMOS 2432 (719)       
1 32276U 07052B   23172.59255466 -.00000066  00000+0  00000+0 0  9992
2 32276  66.0542 352.5230 0008625 340.3481  99.0796  2.13103483121839
COSMOS 2434 (721)       
1 32393U 07065A   23173.51704904  .00000031  00000+0  00000+0 0  9996
2 32393  64.3387 228.8172 0000764 119.2100 253.0726  2.13103213120569
COSMOS 2436 (723)       
1 32395U 07065C   23173.32132556  .00000031  00000+0  00000+0 0  9995
2 32395  64.3474 228.8847 0015233 353.9267   3.7874  2.13103049120487
COSMOS 2456 (730)       
1 36111U 09070A   23172.60267591  .00000006  00000+0  00000+0 0  9993
2 36111  64.4651 108.3740 0005056 311.7954 239.2770  2.13099307105201
COSMOS 2457 (733)       
1 36112U 09070B   23172.57874701  .00000005  00000+0  00000+0 0  9996
2 36112  64.4489 108.2419 0003479 177.0454 125.8719  2.13101458105167
COSMOS 2460 (732)       
1 36402U 10007C   23173.57863924 -.00000061  00000+0  00000+0 0  9999
2 36402  65.9040 351.1108 0002504  85.5025 252.0534  2.13106474103571
COSMOS 2476 (744)       
1 37867U 11064A   23172.84104307  .00000010  00000+0  00000+0 0  9994
2 37867  64.7467 109.8645 0022699 239.6498  42.9782  2.13101831 90550
COSMOS 2477 (745)       
1 37868U 11064B   23173.59126069  .00000015  00000+0  00000+0 0  9992
2 37868  64.7543 109.9078 0019956 240.9473  75.1308  2.13101734 90528
COSMOS 2475 (743)       
1 37869U 11064C   23173.35343087  .00000014  00000+0  00000+0 0  9997
2 37869  64.7615 109.9275 0024762 256.4477 195.5512  2.13102109 90537
COSMOS 2485 (747)       
1 39155U 13019A   23172.41450427  .00000007  00000+0  00000+0 0  9994
2 39155  64.9076 110.3867 0023027 235.6365 124.1315  2.13102004 79014
COSMOS 2492 (754)       
1 39620U 14012A   23172.37007286 -.00000067  00000+0  00000+0 0  9998
2 39620  65.7885 350.7803 0011404 331.8455  28.1061  2.13103323 71976
COSMOS 2500 (755)       
1 40001U 14032A   23173.02362118 -.00000064  00000+0  00000+0 0  9993
2 40001  65.7267 350.5917 0005872 181.2215 178.7908  2.13106162 70203
COSMOS 2501 (702K)      
1 40315U 14075A   23172.80358533  .00000032  00000+0  00000+0 0  9993
2 40315  63.6427 228.2610 0019910 210.4183 149.5508  2.13101568 66598
COSMOS 2514 (751)       
1 41330U 16008A   23173.25373682 -.00000063  00000+0  00000+0 0  9996
2 41330  65.5244 350.1836 0009158 198.9416 161.0377  2.13102829 57371
COSMOS 2516 (753)       
1 41554U 16032A   23171.96283348  .00000036  00000+0  00000+0 0  9995
2 41554  63.8690 228.6699 0015313 214.1256 145.8628  2.13106593 54956
COSMOS 2522 (752)       
1 42939U 17055A   23172.62676782  .00000032  00000+0  00000+0 0  9997
2 42939  64.1031 229.1502 0009547 240.7002 119.2900  2.13102023 44728
COSMOS 2527 (756)       
1 43508U 18053A   23173.52362030  .00000016  00000+0  00000+0 0  9999
2 43508  65.0695 110.4265 0008599 239.5408 120.3654  2.13102518 39033
COSMOS 2529 (757)       
1 43687U 18086A   23172.68474492  .00000032  00000+0  00000+0 0  9993
2 43687  64.3183 229.5638 0011068 260.7596  99.2008  2.13102204 36025
COSMOS 2534 (758)       
1 44299U 19030A   23173.55635576  .00000030  00000+0  00000+0 0  9990
2 44299  64.3909 229.4536 0013185 280.4908 162.4553  2.13102288 31693
COSMOS 2544 (759)       
1 44850U 19088A   23172.52874670  .00000009  00000+0  00000+0 0  9998
2 44850  65.0552 110.3043 0013747 261.6194  98.2113  2.13102280 27438
COSMOS 2545 (760)       
1 45358U 20018A   23172.25635898 -.00000070  00000+0  00000+0 0  9993
2 45358  64.8648 350.5237 0006942 239.1197 120.8251  2.13102774 25396
COSMOS 2547 (705K)      
1 46805U 20075A   23172.44596338  .00000034  00000+0  00000+0 0  9999
2 46805  64.6177 229.0251 0008355 242.3368 117.6645  2.13103207 20647
COSMOS 2557 (706K)      
1 52984U 22075A   23172.60778170 -.00000069  00000+0  00000+0 0  9999
2 52984  64.7785 352.6788 0010421 283.8860  76.0140  2.13102255  7432
COSMOS 2559 (707K)      
1 54031U 22130A   23172.54948817 -.00000069  00000+0  00000+0 0  9996
2 54031  64.7494 352.8111 0005148 210.8342 149.1518  2.13101482  5420
COSMOS 2564 (761)       
1 54377U 22161A   23172.27403651  .00000035  00000+0  00000+0 0  9997
2 54377  64.7583 229.0704 0010741 224.0120 135.9889  2.13102235  4364
